NORAD_CAT_ID,OBJECT_NAME,OBJECT_TYPE,EPOCH,MEAN_MOTION,ECCENTRICITY,INCLINATION,RA_OF_ASC_NODE,ARG_OF_PERICENTER,MEAN_ANOMALY,BSTAR,MEAN_MOTION_DOT,MEAN_MOTION_DDOT,TLE_LINE0,TLE_LINE1,TLE_LINE2,SEMIMAJOR_AXIS,PERIOD,APOGEE,PERIGEE,DECAYED
49171.0,STARLINK-3107,PAYLOAD,2024-07-17 21:18:58,14.98242615,0.0002681,70.0015,6.7758,279.7649,80.3207,0.0015997,0.00019003,0.0,0 STARLINK-3107,1 49171U 21082AT  24199.88817391  .00019003  00000-0  15997-2 0  9991,2 49171  70.0015   6.7758 0002681 279.7649  80.3207 14.98242615157297,6950.463,96.113,574.192,570.465,0.0
49171.0,STARLINK-3107,PAYLOAD,2024-07-18 13:20:16,14.98335615,0.0002686,70.0016,5.0932,275.1503,84.935,4.0829e-06,-4.4e-07,0.0,0 STARLINK-3107,1 49171U 21082AT  24200.55574564 -.00000044  00000-0  40829-5 0  9991,2 49171  70.0016   5.0932 0002686 275.1503  84.9350 14.98335615157391,6950.176,96.107,573.907,570.174,0.0
49171.0,STARLINK-3107,PAYLOAD,2024-07-18 21:20:56,14.98339685,0.0002891,70.001,4.2514,270.4979,89.5848,9.5566e-05,1.048e-05,0.0,0 STARLINK-3107,1 49171U 21082AT  24200.88953944  .00001048  00000-0  95566-4 0  9991,2 49171  70.0010   4.2514 0002891 270.4979  89.5848 14.98339685157445,6950.163,96.106,574.037,570.019,0.0
49171.0,STARLINK-3107,PAYLOAD,2024-07-19 13:22:17,14.98326843,0.0002728,70.0013,2.5683,272.2562,87.8285,4.6245e-05,4.59e-06,0.0,0 STARLINK-3107,1 49171U 21082AT  24201.55714843  .00000459  00000-0  46245-4 0  9994,2 49171  70.0013   2.5683 0002728 272.2562  87.8285 14.98326843157542,6950.203,96.107,573.964,570.172,0.0
49171.0,STARLINK-3107,PAYLOAD,2024-07-19 14:58:25,14.98326845,0.0002732,70.0013,2.3999,272.2259,87.8588,4.5023e-05,4.44e-06,0.0,0 STARLINK-3107,1 49171U 21082AT  24201.62390856  .00000444  00000-0  45023-4 0  9993,2 49171  70.0013   2.3999 0002732 272.2259  87.8588 14.98326845157557,6950.203,96.107,573.966,570.169,0.0
49171.0,STARLINK-3107,PAYLOAD,2024-07-19 19:46:49,14.98328862,0.000261,70.0016,1.8962,263.989,96.0972,8.644e-05,9.39e-06,0.0,0 STARLINK-3107,1 49171U 21082AT  24201.82418621  .00000939  00000-0  86440-4 0  9993,2 49171  70.0016   1.8962 0002610 263.9890  96.0972 14.98328862157580,6950.196,96.107,573.875,570.247,0.0
49171.0,STARLINK-3107,PAYLOAD,2024-07-20 13:24:18,14.98334138,0.000264,70.0016,0.0445,266.2496,93.8361,2.2725e-05,1.78e-06,0.0,0 STARLINK-3107,1 49171U 21082AT  24202.55854423  .00000178  00000-0  22725-4 0  9999,2 49171  70.0016   0.0445 0002640 266.2496  93.8361 14.98334138157690,6950.18,96.107,573.88,570.21,0.0
49171.0,STARLINK-3107,PAYLOAD,2024-07-20 15:00:26,14.9833353,0.0002666,70.0017,359.8762,266.1935,93.8919,1.3881e-05,7.3e-07,0.0,0 STARLINK-3107,1 49171U 21082AT  24202.62530464  .00000073  00000-0  13881-4 0  9990,2 49171  70.0017 359.8762 0002666 266.1935  93.8919 14.98333530157709,6950.182,96.107,573.9,570.194,0.0
49171.0,STARLINK-3107,PAYLOAD,2024-07-20 19:48:50,14.98331777,0.0002699,70.0018,359.3707,266.5521,93.5329,5.327e-05,5.43e-06,0.0,0 STARLINK-3107,1 49171U 21082AT  24202.82558455  .00000543  00000-0  53270-4 0  9990,2 49171  70.0018 359.3707 0002699 266.5521  93.5329 14.98331777157731,6950.187,96.107,573.928,570.177,0.0
49171.0,STARLINK-3107,PAYLOAD,2024-07-21 03:49:29,14.98384329,0.0003046,70.0016,358.5292,264.8554,95.2258,-0.00090741,-0.00010918,0.0,0 STARLINK-3107,1 49171U 21082AT  24203.15936851 -.00010918  00000-0 -90741-3 0  9999,2 49171  70.0016 358.5292 0003046 264.8554  95.2258 14.98384329157789,6950.025,96.104,574.007,569.773,0.0
49171.0,STARLINK-3107,PAYLOAD,2024-07-21 13:26:19,14.98328459,0.0003201,70.0016,357.5188,275.3035,84.7759,-1.6461e-06,-1.13e-06,0.0,0 STARLINK-3107,1 49171U 21082AT  24203.55994777 -.00000113  00000-0 -16461-5 0  9999,2 49171  70.0016 357.5188 0003201 275.3035  84.7759 14.98328459157844,6950.198,96.107,574.287,569.838,0.0
49171.0,STARLINK-3107,PAYLOAD,2024-07-21 15:02:27,14.98325716,0.0002901,70.0017,357.3506,268.3288,91.7538,3.0777e-05,2.74e-06,0.0,0 STARLINK-3107,1 49171U 21082AT  24203.62670852  .00000274  00000-0  30777-4 0  9993,2 49171  70.0017 357.3506 0002901 268.3288  91.7538 14.98325716157852,6950.206,96.107,574.087,570.055,0.0
49171.0,STARLINK-3107,PAYLOAD,2024-07-21 19:50:51,14.98328417,0.0002878,70.0016,356.8451,267.224,92.859,4.8563e-05,4.86e-06,0.0,0 STARLINK-3107,1 49171U 21082AT  24203.82698651  .00000486  00000-0  48563-4 0  9999,2 49171  70.0016 356.8451 0002878 267.2240  92.8590 14.98328417157887,6950.198,96.107,574.063,570.063,0.0
49171.0,STARLINK-3107,PAYLOAD,2024-07-22 10:16:04,14.98329481,0.000298,70.0013,355.3305,269.282,90.7998,6.0086e-05,6.24e-06,0.0,0 STARLINK-3107,1 49171U 21082AT  24204.42782508  .00000624  00000-0  60086-4 0  9999,2 49171  70.0013 355.3305 0002980 269.2820  90.7998 14.98329481157977,6950.194,96.107,574.131,569.988,0.0
49171.0,STARLINK-3107,PAYLOAD,2024-07-23 10:18:05,14.98328137,0.0002989,70.0014,352.8045,268.9958,91.0858,8.8538e-05,9.64e-06,0.0,0 STARLINK-3107,1 49171U 21082AT  24205.42922572  .00000964  00000-0  88538-4 0  9996,2 49171  70.0014 352.8045 0002989 268.9958  91.0858 14.98328137158122,6950.199,96.107,574.141,569.986,0.0
49171.0,STARLINK-3107,PAYLOAD,2024-07-23 19:54:53,14.98331294,0.0003083,70.0012,351.7952,269.0926,90.988,6.2464e-05,6.52e-06,0.0,0 STARLINK-3107,1 49171U 21082AT  24205.82978475  .00000652  00000-0  62464-4 0  9997,2 49171  70.0012 351.7952 0003083 269.0926  90.9880 14.98331294158185,6950.189,96.107,574.197,569.911,0.0
49171.0,STARLINK-3107,PAYLOAD,2024-07-24 10:20:06,14.98330073,0.0003042,70.0005,350.2787,275.6655,84.4157,4.0249e-05,3.87e-06,0.0,0 STARLINK-3107,1 49171U 21082AT  24206.43062665  .00000387  00000-0  40249-4 0  9992,2 49171  70.0005 350.2787 0003042 275.6655  84.4157 14.98330073158273,6950.193,96.107,574.172,569.943,0.0
49171.0,STARLINK-3107,PAYLOAD,2024-07-25 10:22:06,14.98333192,0.0002949,70.0014,347.7549,273.5849,86.4973,8.6249e-05,9.36e-06,0.0,0 STARLINK-3107,1 49171U 21082AT  24207.43202240  .00000936  00000-0  86249-4 0  9998,2 49171  70.0014 347.7549 0002949 273.5849  86.4973 14.98333192158427,6950.183,96.107,574.098,569.998,0.0
49171.0,STARLINK-3107,PAYLOAD,2024-07-25 19:58:55,14.98333149,0.0002956,70.0014,346.7449,273.8142,86.2679,7.3564e-05,7.85e-06,0.0,0 STARLINK-3107,1 49171U 21082AT  24207.83258147  .00000785  00000-0  73564-4 0  9997,2 49171  70.0014 346.7449 0002956 273.8142  86.2679 14.98333149158481,6950.183,96.107,574.103,569.994,0.0
49171.0,STARLINK-3107,PAYLOAD,2024-07-26 10:24:07,14.98333831,0.0002926,69.9994,345.228,262.749,97.3336,3.2302e-05,2.92e-06,0.0,0 STARLINK-3107,1 49171U 21082AT  24208.43342053  .00000292  00000-0  32302-4 0  9992,2 49171  69.9994 345.2280 0002926 262.7490  97.3336 14.98333831158573,6950.181,96.107,574.08,570.012,0.0
49171.0,STARLINK-3107,PAYLOAD,2024-07-26 15:12:31,14.98335235,0.0002876,69.9997,344.7232,259.9553,100.1282,4.3319e-05,4.24e-06,0.0,0 STARLINK-3107,1 49171U 21082AT  24208.63369854  .00000424  00000-0  43319-4 0  9999,2 49171  69.9997 344.7232 0002876 259.9553 100.1282 14.98335235158606,6950.177,96.107,574.041,570.043,0.0
49171.0,STARLINK-3107,PAYLOAD,2024-07-27 02:25:27,14.98335476,0.0002804,69.9993,343.5456,263.0627,97.0213,5.8623e-05,6.07e-06,0.0,0 STARLINK-3107,1 49171U 21082AT  24209.10101633  .00000607  00000-0  58623-4 0  9998,2 49171  69.9993 343.5456 0002804 263.0627  97.0213 14.98335476158678,6950.176,96.107,573.99,570.092,0.0
49171.0,STARLINK-3107,PAYLOAD,2024-07-27 10:26:07,14.98341999,0.0003014,69.9998,342.7036,262.9922,97.0894,9.79e-05,1.076e-05,0.0,0 STARLINK-3107,1 49171U 21082AT  24209.43480895  .00001076  00000-0  97900-4 0  9996,2 49171  69.9998 342.7036 0003014 262.9922  97.0894 14.98341999158726,6950.156,96.106,574.116,569.926,0.0
49171.0,STARLINK-3107,PAYLOAD,2024-07-27 18:26:47,14.98349009,0.0002877,70.0006,341.8632,263.6458,96.4373,0.0001713,1.952e-05,0.0,0 STARLINK-3107,1 49171U 21082AT  24209.76859981  .00001952  00000-0  17130-3 0  9997,2 49171  70.0006 341.8632 0002877 263.6458  96.4373 14.98349009158779,6950.134,96.106,573.999,570.0,0.0
49171.0,STARLINK-3107,PAYLOAD,2024-07-28 02:27:28,14.98333275,0.0001745,70.0016,341.0223,276.4748,83.6213,2.1807e-05,1.67e-06,0.0,0 STARLINK-3107,1 49171U 21082AT  24210.10241588  .00000167  00000-0  21807-4 0  9999,2 49171  70.0016 341.0223 0001745 276.4748  83.6213 14.98333275158820,6950.183,96.107,573.261,570.835,0.0
49171.0,STARLINK-3107,PAYLOAD,2024-07-28 12:04:17,14.98321278,0.0002804,70.0007,340.0116,268.0771,92.0067,-0.00014081,-1.772e-05,0.0,0 STARLINK-3107,1 49171U 21082AT  24210.50298409 -.00001772  00000-0 -14081-3 0  9997,2 49171  70.0007 340.0116 0002804 268.0771  92.0067 14.98321278158887,6950.22,96.108,574.034,570.136,0.0
49171.0,STARLINK-3107,PAYLOAD,2024-07-28 18:28:50,14.9832168,0.0002823,70.0018,339.3388,268.8643,91.2192,-0.00012445,-1.577e-05,0.0,0 STARLINK-3107,1 49171U 21082AT  24210.77002481 -.00001577  00000-0 -12445-3 0  9994,2 49171  70.0018 339.3388 0002823 268.8643  91.2192 14.98321680158920,6950.219,96.108,574.046,570.122,0.0
49171.0,STARLINK-3107,PAYLOAD,2024-07-29 02:29:30,14.98330361,0.0002821,70.0016,338.4975,269.8096,90.274,-0.0001413,-1.778e-05,0.0,0 STARLINK-3107,1 49171U 21082AT  24211.10382162 -.00001778  00000-0 -14130-3 0  9995,2 49171  70.0016 338.4975 0002821 269.8096  90.2740 14.98330361158970,6950.192,96.107,574.017,570.096,0.0
49171.0,STARLINK-3107,PAYLOAD,2024-07-29 10:30:10,14.98334042,0.0002912,70.0012,337.6554,269.0269,91.0557,-8.5899e-05,-1.118e-05,0.0,0 STARLINK-3107,1 49171U 21082AT  24211.43761719 -.00001118  00000-0 -85899-4 0  9999,2 49171  70.0012 337.6554 0002912 269.0269  91.0557 14.98334042159027,6950.18,96.107,574.069,570.021,0.0
49171.0,STARLINK-3107,PAYLOAD,2024-07-29 20:06:57,14.98344032,0.0002915,70.0015,336.6457,268.8488,91.2337,-1.5298e-05,-2.76e-06,0.0,0 STARLINK-3107,1 49171U 21082AT  24211.83816826 -.00000276  00000-0 -15298-4 0  9993,2 49171  70.0015 336.6457 0002915 268.8488  91.2337 14.98344032159088,6950.149,96.106,574.04,569.989,0.0
